[{"OBJECT_NAME":"STARLINK-31471","OBJECT_ID":"2024-076E","EPOCH":"2026-03-09T03:53:44.273472","MEAN_MOTION":15.27566798,"ECCENTRICITY":0.00010168,"INCLINATION":43.0065,"RA_OF_ASC_NODE":11.8378,"ARG_OF_PERICENTER":285.9523,"MEAN_ANOMALY":74.1216,"EPHEMERIS_TYPE":0,"CLASSIFICATION_TYPE":"U","NORAD_CAT_ID":59568,"ELEMENT_SET_NO":999,"REV_AT_EPOCH":10633,"BSTAR":-5.4536425e-5,"MEAN_MOTION_DOT":-1.762e-5,"MEAN_MOTION_DDOT":0},{"OBJECT_NAME":"SIMSAT 2","OBJECT_ID":"2000-026B","EPOCH":"2026-03-09T20:25:01.673184","MEAN_MOTION":15.29036787,"ECCENTRICITY":0.00037035,"INCLINATION":86.3514,"RA_OF_ASC_NODE":176.4271,"ARG_OF_PERICENTER":287.9875,"MEAN_ANOMALY":72.0969,"EPHEMERIS_TYPE":0,"CLASSIFICATION_TYPE":"U","NORAD_CAT_ID":26366,"ELEMENT_SET_NO":999,"REV_AT_EPOCH":42803,"BSTAR":0.00013465771,"MEAN_MOTION_DOT":3.833e-5,"MEAN_MOTION_DDOT":0}]
